NORAD_CAT_ID,OBJECT_NAME,OBJECT_TYPE,EPOCH,MEAN_MOTION,ECCENTRICITY,INCLINATION,RA_OF_ASC_NODE,ARG_OF_PERICENTER,MEAN_ANOMALY,BSTAR,MEAN_MOTION_DOT,MEAN_MOTION_DDOT,TLE_LINE0,TLE_LINE1,TLE_LINE2,SEMIMAJOR_AXIS,PERIOD,APOGEE,PERIGEE,DECAYED
52355.0,STARLINK-3877,PAYLOAD,2024-05-05 14:57:55,15.08839537,0.0001236,53.2181,340.6324,73.3523,286.7605,0.0002885,4.307e-05,0.0,0 STARLINK-3877,1 52355U 22045AA  24126.62356479  .00004307  00000-0  28850-3 0  9990,2 52355  53.2181 340.6324 0001236  73.3523 286.7605 15.08839537114176,6917.882,95.438,540.602,538.892,0.0
52355.0,STARLINK-3877,PAYLOAD,2024-05-05 21:19:28,15.08842056,0.0001275,53.2171,339.4431,72.5312,287.5819,0.0002863,4.272e-05,0.0,0 STARLINK-3877,1 52355U 22045AA  24126.88852754  .00004272  00000-0  28630-3 0  9992,2 52355  53.2171 339.4431 0001275  72.5312 287.5819 15.08842056114211,6917.874,95.437,540.621,538.857,0.0
52355.0,STARLINK-3877,PAYLOAD,2024-05-06 06:51:46,15.08855291,0.0001444,53.2182,337.6602,82.1609,277.9547,0.00033342,5.025e-05,0.0,0 STARLINK-3877,1 52355U 22045AA  24127.28595912  .00005025  00000-0  33342-3 0  9990,2 52355  53.2182 337.6602 0001444  82.1609 277.9547 15.08855291114279,6917.834,95.437,540.698,538.7,0.0
52355.0,STARLINK-3877,PAYLOAD,2024-05-06 21:10:15,15.08841853,0.000151,53.218,334.9821,86.1706,273.9459,-1.3949e-05,-5.1e-06,0.0,0 STARLINK-3877,1 52355U 22045AA  24127.88212464 -.00000510  00000-0 -13949-4 0  9992,2 52355  53.2180 334.9821 0001510  86.1706 273.9459 15.08841853114363,6917.875,95.437,540.784,538.695,0.0
52355.0,STARLINK-3877,PAYLOAD,2024-05-07 13:04:06,15.08847758,0.0002488,53.2178,332.01,78.8743,281.2528,0.00018052,2.586e-05,0.0,0 STARLINK-3877,1 52355U 22045AA  24128.54452307  .00002586  00000-0  18052-3 0  9990,2 52355  53.2178 332.0100 0002488  78.8743 281.2528 15.08847758114463,6917.857,95.437,541.443,538.001,0.0
52355.0,STARLINK-3877,PAYLOAD,2024-05-07 21:01:02,15.08838113,0.0001415,53.2173,330.5228,80.3266,279.7886,3.6774e-05,2.97e-06,0.0,0 STARLINK-3877,1 52355U 22045AA  24128.87572547  .00000297  00000-0  36774-4 0  9994,2 52355  53.2173 330.5228 0001415  80.3266 279.7886 15.08838113114519,6917.886,95.438,540.73,538.772,0.0
52355.0,STARLINK-3877,PAYLOAD,2024-05-07 22:36:25,15.0883964,0.0001425,53.2172,330.2255,80.1953,279.92,0.00013293,1.828e-05,0.0,0 STARLINK-3877,1 52355U 22045AA  24128.94196500  .00001828  00000-0  13293-3 0  9994,2 52355  53.2172 330.2255 0001425  80.1953 279.9200 15.08839640114526,6917.881,95.438,540.732,538.761,0.0
52355.0,STARLINK-3877,PAYLOAD,2024-05-08 12:54:53,15.08850221,0.0001358,53.2165,327.5495,80.7909,279.3237,0.00057501,8.878e-05,0.0,0 STARLINK-3877,1 52355U 22045AA  24129.53812454  .00008878  00000-0  57501-3 0  9995,2 52355  53.2165 327.5495 0001358  80.7909 279.3237 15.08850221114617,6917.849,95.437,540.654,538.775,0.0
52355.0,STARLINK-3877,PAYLOAD,2024-05-08 20:51:50,15.08840303,0.000135,53.2163,326.0631,82.8351,277.2794,0.00035672,5.394e-05,0.0,0 STARLINK-3877,1 52355U 22045AA  24129.86932898  .00005394  00000-0  35672-3 0  9991,2 52355  53.2163 326.0631 0001350  82.8351 277.2794 15.08840303114667,6917.879,95.438,540.678,538.811,0.0
52355.0,STARLINK-3877,PAYLOAD,2024-05-09 06:24:08,15.08853976,0.000133,53.2167,324.2787,82.0507,278.0637,0.00066755,0.00010356,0.0,0 STARLINK-3877,1 52355U 22045AA  24130.26676574  .00010356  00000-0  66755-3 0  9993,2 52355  53.2167 324.2787 0001330  82.0507 278.0637 15.08853976114728,6917.838,95.437,540.623,538.783,0.0
52355.0,STARLINK-3877,PAYLOAD,2024-05-09 19:07:13,15.08843135,0.0001384,53.2169,321.8966,105.256,254.8585,0.00024349,3.59e-05,0.0,0 STARLINK-3877,1 52355U 22045AA  24130.79668717  .00003590  00000-0  24349-3 0  9996,2 52355  53.2169 321.8966 0001384 105.2560 254.8585 15.08843135114807,6917.871,95.437,540.693,538.778,0.0
52355.0,STARLINK-3877,PAYLOAD,2024-05-10 06:14:55,15.0885337,0.0001323,53.2169,319.8166,91.7905,268.3238,0.00046461,7.117e-05,0.0,0 STARLINK-3877,1 52355U 22045AA  24131.26036491  .00007117  00000-0  46461-3 0  9995,2 52355  53.2169 319.8166 0001323  91.7905 268.3238 15.08853370114875,6917.84,95.437,540.62,538.789,0.0
52355.0,STARLINK-3877,PAYLOAD,2024-05-10 18:58:00,15.08843017,0.0001324,53.2189,317.4369,91.38,268.7344,0.00021013,3.058e-05,0.0,0 STARLINK-3877,1 52355U 22045AA  24131.79028819  .00003058  00000-0  21013-3 0  9994,2 52355  53.2189 317.4369 0001324  91.3800 268.7344 15.08843017114955,6917.871,95.437,540.652,538.82,0.0
52355.0,STARLINK-3877,PAYLOAD,2024-05-11 12:27:13,15.08884371,0.0001388,53.2195,314.1642,93.6904,266.4247,0.00080552,0.00012571,0.0,0 STARLINK-3877,1 52355U 22045AA  24132.51890281  .00012571  00000-0  80552-3 0  9998,2 52355  53.2195 314.1642 0001388  93.6904 266.4247 15.08884371115068,6917.745,95.435,540.57,538.65,0.0
52355.0,STARLINK-3877,PAYLOAD,2024-05-11 18:48:47,15.08815532,0.0001706,53.2192,312.9753,92.9036,267.2152,-0.0012659,-0.00020365,0.0,0 STARLINK-3877,1 52355U 22045AA  24132.78387747 -.00020365  00000-0 -12659-2 0  9999,2 52355  53.2192 312.9753 0001706  92.9036 267.2152 15.08815532115108,6917.955,95.439,541.0,538.64,0.0
52355.0,STARLINK-3877,PAYLOAD,2024-05-11 21:59:33,15.08799647,0.0001575,53.218,312.3827,90.9018,269.2154,-0.0016027,-0.00025676,0.0,0 STARLINK-3877,1 52355U 22045AA  24132.91636379 -.00025676  00000-0 -16027-2 0  9995,2 52355  53.2180 312.3827 0001575  90.9018 269.2154 15.08799647115127,6918.004,95.44,540.958,538.779,0.0
52355.0,STARLINK-3877,PAYLOAD,2024-05-12 18:39:37,15.08802471,0.0001091,53.2176,308.5173,77.0388,283.0726,7.0304e-05,8.3e-06,0.0,0 STARLINK-3877,1 52355U 22045AA  24133.77751166  .00000830  00000-0  70304-4 0  9995,2 52355  53.2176 308.5173 0001091  77.0388 283.0726 15.08802471115255,6917.995,95.44,540.615,539.105,0.0
52355.0,STARLINK-3877,PAYLOAD,2024-05-12 21:50:23,15.08825943,0.0001106,53.217,307.9224,71.9904,288.1209,0.00088299,0.00013787,0.0,0 STARLINK-3877,1 52355U 22045AA  24133.90998927  .00013787  00000-0  88299-3 0  9994,2 52355  53.2170 307.9224 0001106  71.9904 288.1209 15.08825943115276,6917.923,95.438,540.553,539.023,0.0
52355.0,STARLINK-3877,PAYLOAD,2024-05-13 04:11:56,15.088302,0.0001292,53.2182,306.7335,78.8734,281.2403,0.0018589,0.00029412,0.0,0 STARLINK-3877,1 52355U 22045AA  24134.17495656  .00029412  00000-0  18589-2 0  9991,2 52355  53.2182 306.7335 0001292  78.8734 281.2403 15.08830200115319,6917.91,95.438,540.669,538.882,0.0
52355.0,STARLINK-3877,PAYLOAD,2024-05-13 12:08:51,15.08850772,0.0001235,53.2175,305.246,79.1138,280.9993,0.0015653,0.00024719,0.0,0 STARLINK-3877,1 52355U 22045AA  24134.50615258  .00024719  00000-0  15653-2 0  9994,2 52355  53.2175 305.2460 0001235  79.1138 280.9993 15.08850772115364,6917.847,95.437,540.567,538.858,0.0
52355.0,STARLINK-3877,PAYLOAD,2024-05-13 18:30:23,15.088741,0.0001117,53.2179,304.0569,76.2724,283.8393,0.00062575,9.694e-05,0.0,0 STARLINK-3877,1 52355U 22045AA  24134.77110398  .00009694  00000-0  62575-3 0  9999,2 52355  53.2179 304.0569 0001117  76.2724 283.8393 15.08874100115405,6917.776,95.435,540.414,538.868,0.0
52355.0,STARLINK-3877,PAYLOAD,2024-05-14 10:24:14,15.08859948,0.0002202,53.2169,301.0822,83.3797,276.7446,-9.8758e-06,-4.46e-06,0.0,0 STARLINK-3877,1 52355U 22045AA  24135.43349693 -.00000446  00000-0 -98758-5 0  9997,2 52355  53.2169 301.0822 0002202  83.3797 276.7446 15.08859948115502,6917.819,95.436,541.208,538.161,0.0
52355.0,STARLINK-3877,PAYLOAD,2024-05-15 10:15:00,15.08859004,0.0003013,53.2111,296.6222,73.9931,286.1393,0.00057274,8.844e-05,0.0,0 STARLINK-3877,1 52355U 22045AA  24136.42709374  .00008844  00000-0  57274-3 0  9997,2 52355  53.2111 296.6222 0003013  73.9931 286.1393 15.08859004115653,6917.822,95.436,541.772,537.603,0.0
52355.0,STARLINK-3877,PAYLOAD,2024-05-15 18:11:56,15.08856715,0.0001448,53.2165,295.1342,73.2724,286.8427,0.0006199,9.596e-05,0.0,0 STARLINK-3877,1 52355U 22045AA  24136.75829207  .00009596  00000-0  61990-3 0  9996,2 52355  53.2165 295.1342 0001448  73.2724 286.8427 15.08856715115709,6917.829,95.436,540.696,538.693,0.0
52355.0,STARLINK-3877,PAYLOAD,2024-05-16 03:44:14,15.08862947,0.0001325,53.2162,293.3493,85.8384,274.276,0.00081942,0.00012785,0.0,0 STARLINK-3877,1 52355U 22045AA  24137.15572636  .00012785  00000-0  81942-3 0  9995,2 52355  53.2162 293.3493 0001325  85.8384 274.2760 15.08862947115769,6917.81,95.436,540.592,538.759,0.0
52355.0,STARLINK-3877,PAYLOAD,2024-05-16 19:38:06,15.08846335,0.0001887,53.2147,290.379,81.1564,278.9642,0.00044694,6.833e-05,0.0,0 STARLINK-3877,1 52355U 22045AA  24137.81813099  .00006833  00000-0  44694-3 0  9999,2 52355  53.2147 290.3790 0001887  81.1564 278.9642 15.08846335115865,6917.861,95.437,541.031,538.421,0.0
52355.0,STARLINK-3877,PAYLOAD,2024-05-17 03:35:01,15.08860689,0.0001685,53.2163,288.8923,82.4023,277.7161,0.001074,0.00016856,0.0,0 STARLINK-3877,1 52355U 22045AA  24138.14932686  .00016856  00000-0  10740-2 0  9990,2 52355  53.2163 288.8923 0001685  82.4023 277.7161 15.08860689115910,6917.817,95.436,540.848,538.516,0.0
52355.0,STARLINK-3877,PAYLOAD,2024-05-17 19:28:54,15.08806217,0.0001925,53.216,285.9163,103.0018,257.119,0.0010629,0.00016653,0.0,0 STARLINK-3877,1 52355U 22045AA  24138.81174656  .00016653  00000-0  10629-2 0  9990,2 52355  53.2160 285.9163 0001925 103.0018 257.1190 15.08806217116015,6917.984,95.44,541.18,538.517,0.0
52355.0,STARLINK-3877,PAYLOAD,2024-05-18 03:25:52,15.08775649,0.000315,53.2162,284.4277,99.7919,260.3429,0.0012259,0.00019243,0.0,0 STARLINK-3877,1 52355U 22045AA  24139.14296576  .00019243  00000-0  12259-2 0  9992,2 52355  53.2162 284.4277 0003150  99.7919 260.3429 15.08775649116060,6918.077,95.442,542.121,537.763,0.0
52355.0,STARLINK-3877,PAYLOAD,2024-05-18 12:58:10,15.08854611,0.0001688,53.215,282.6465,81.6458,278.4726,0.002651,0.00042173,0.0,0 STARLINK-3877,1 52355U 22045AA  24139.54039549  .00042173  00000-0  26510-2 0  9994,2 52355  53.2150 282.6465 0001688  81.6458 278.4726 15.08854611116122,6917.836,95.437,540.868,538.533,0.0
